SAPPHIRE                
1 39088U 13009C   26066.02848634  .00000220  00000+0  91682-4 0  9999
2 39088  98.4217 247.9191 0011051 187.5027 172.5995 14.35207536681922
PRAETORIAN SDA_602      
1 65565U 25203A   26066.18695168  .00000266  00000+0  22738-3 0  9991
2 65565  81.3001 105.2585 0007092 107.1706 253.0228 13.84332421 24580
PRAETORIAN SDA_603      
1 65566U 25203B   26066.18155340  .00000184  00000+0  15534-3 0  9990
2 65566  81.3004 105.1064 0010807 108.4228 251.8104 13.83903134 24590
PRAETORIAN SDA_604      
1 65567U 25203C   26066.13781896  .00000063  00000+0  47051-4 0  9993
2 65567  81.3024 105.4025 0006773 114.0831 246.1034 13.83033923 24570
PRAETORIAN SDA_605      
1 65568U 25203D   26066.13382460  .00000073  00000+0  54942-4 0  9996
2 65568  81.2986 105.1733 0009513 104.5305 255.6908 13.83528491 24580
PRAETORIAN SDA_606      
1 65569U 25203E   26066.19169075  .00000234  00000+0  20172-3 0  9994
2 65569  81.3017 105.3069 0007389 107.4585 252.7379 13.83530246 24583
PRAETORIAN SDA_607      
1 65570U 25203F   26066.18890589  .00000227  00000+0  19234-3 0  9995
2 65570  81.3009 105.1249 0010722 109.2294 251.0024 13.84464695 24591
PRAETORIAN SDA_608      
1 65571U 25203G   26066.13048905  .00000068  00000+0  50637-4 0  9994
2 65571  81.2977 105.2970 0007167 113.6306 246.5603 13.83886505 24576
PRAETORIAN SDA_609      
1 65572U 25203H   26066.16852767  .00000254  00000+0  21640-3 0  9995
2 65572  81.3023 105.2704 0008229 107.4983 252.7073 13.84314286 24581
PRAETORIAN SDA_610      
1 65573U 25203J   26066.18684851  .00000077  00000+0  58952-4 0  9995
2 65573  81.2978 105.2108 0007792 108.9035 251.2967 13.84010886 24581
PRAETORIAN SDA_611      
1 65574U 25203K   26066.14333250  .00000325  00000+0  28535-3 0  9995
2 65574  81.2973 105.3233 0006892 116.7267 243.4595 13.83296130 24577
PRAETORIAN SDA_612      
1 65575U 25203L   26066.18805418  .00000246  00000+0  20640-3 0  9991
2 65575  81.3005 105.1194 0011017 110.0765 250.1579 13.85044265 24595
PRAETORIAN SDA_613      
1 65576U 25203M   26066.19290630  .00000265  00000+0  23176-3 0  9995
2 65576  81.2971 105.2178 0007077 109.3014 250.8908 13.82987338 24585
PRAETORIAN SDA_614      
1 65577U 25203N   26066.15806326  .00000067  00000+0  48900-4 0  9990
2 65577  81.2983 105.1989 0008406 107.0156 253.1922 13.84765379 24591
PRAETORIAN SDA_615      
1 65578U 25203P   26066.18198191  .00000181  00000+0  15069-3 0  9994
2 65578  81.2993 105.0762 0010302 107.0356 253.1930 13.84422135 24590
PRAETORIAN SDA_616      
1 65579U 25203Q   26066.14255963  .00000262  00000+0  22743-3 0  9999
2 65579  81.3033 105.4074 0006650 116.5482 243.6357 13.83297695 24578
