[{"OBJECT_NAME":"SAPPHIRE","OBJECT_ID":"2013-009C","EPOCH":"2026-03-07T00:41:01.219776","MEAN_MOTION":14.35207536,"ECCENTRICITY":0.0011051,"INCLINATION":98.4217,"RA_OF_ASC_NODE":247.9191,"ARG_OF_PERICENTER":187.5027,"MEAN_ANOMALY":172.5995,"EPHEMERIS_TYPE":0,"CLASSIFICATION_TYPE":"U","NORAD_CAT_ID":39088,"ELEMENT_SET_NO":999,"REV_AT_EPOCH":68192,"BSTAR":9.1682e-5,"MEAN_MOTION_DOT":2.2e-6,"MEAN_MOTION_DDOT":0},{"OBJECT_NAME":"PRAETORIAN SDA_602","OBJECT_ID":"2025-203A","EPOCH":"2026-03-07T04:29:12.625152","MEAN_MOTION":13.84332421,"ECCENTRICITY":0.0007092,"INCLINATION":81.3001,"RA_OF_ASC_NODE":105.2585,"ARG_OF_PERICENTER":107.1706,"MEAN_ANOMALY":253.0228,"EPHEMERIS_TYPE":0,"CLASSIFICATION_TYPE":"U","NORAD_CAT_ID":65565,"ELEMENT_SET_NO":999,"REV_AT_EPOCH":2458,"BSTAR":0.00022738,"MEAN_MOTION_DOT":2.66e-6,"MEAN_MOTION_DDOT":0},{"OBJECT_NAME":"PRAETORIAN SDA_603","OBJECT_ID":"2025-203B","EPOCH":"2026-03-07T04:21:26.213760","MEAN_MOTION":13.83903134,"ECCENTRICITY":0.0010807,"INCLINATION":81.3004,"RA_OF_ASC_NODE":105.1064,"ARG_OF_PERICENTER":108.4228,"MEAN_ANOMALY":251.8104,"EPHEMERIS_TYPE":0,"CLASSIFICATION_TYPE":"U","NORAD_CAT_ID":65566,"ELEMENT_SET_NO":999,"REV_AT_EPOCH":2459,"BSTAR":0.00015534,"MEAN_MOTION_DOT":1.84e-6,"MEAN_MOTION_DDOT":0},{"OBJECT_NAME":"PRAETORIAN SDA_604","OBJECT_ID":"2025-203C","EPOCH":"2026-03-07T03:18:27.558144","MEAN_MOTION":13.83033923,"ECCENTRICITY":0.0006773,"INCLINATION":81.3024,"RA_OF_ASC_NODE":105.4025,"ARG_OF_PERICENTER":114.0831,"MEAN_ANOMALY":246.1034,"EPHEMERIS_TYPE":0,"CLASSIFICATION_TYPE":"U","NORAD_CAT_ID":65567,"ELEMENT_SET_NO":999,"REV_AT_EPOCH":2457,"BSTAR":4.7051e-5,"MEAN_MOTION_DOT":6.3e-7,"MEAN_MOTION_DDOT":0},{"OBJECT_NAME":"PRAETORIAN SDA_605","OBJECT_ID":"2025-203D","EPOCH":"2026-03-07T03:12:42.445440","MEAN_MOTION":13.83528491,"ECCENTRICITY":0.0009513,"INCLINATION":81.2986,"RA_OF_ASC_NODE":105.1733,"ARG_OF_PERICENTER":104.5305,"MEAN_ANOMALY":255.6908,"EPHEMERIS_TYPE":0,"CLASSIFICATION_TYPE":"U","NORAD_CAT_ID":65568,"ELEMENT_SET_NO":999,"REV_AT_EPOCH":2458,"BSTAR":5.4942e-5,"MEAN_MOTION_DOT":7.3e-7,"MEAN_MOTION_DDOT":0},{"OBJECT_NAME":"PRAETORIAN SDA_606","OBJECT_ID":"2025-203E","EPOCH":"2026-03-07T04:36:02.080800","MEAN_MOTION":13.83530246,"ECCENTRICITY":0.0007389,"INCLINATION":81.3017,"RA_OF_ASC_NODE":105.3069,"ARG_OF_PERICENTER":107.4585,"MEAN_ANOMALY":252.7379,"EPHEMERIS_TYPE":0,"CLASSIFICATION_TYPE":"U","NORAD_CAT_ID":65569,"ELEMENT_SET_NO":999,"REV_AT_EPOCH":2458,"BSTAR":0.00020172,"MEAN_MOTION_DOT":2.34e-6,"MEAN_MOTION_DDOT":0},{"OBJECT_NAME":"PRAETORIAN SDA_607","OBJECT_ID":"2025-203F","EPOCH":"2026-03-07T04:32:01.468896","MEAN_MOTION":13.84464695,"ECCENTRICITY":0.0010722,"INCLINATION":81.3009,"RA_OF_ASC_NODE":105.1249,"ARG_OF_PERICENTER":109.2294,"MEAN_ANOMALY":251.0024,"EPHEMERIS_TYPE":0,"CLASSIFICATION_TYPE":"U","NORAD_CAT_ID":65570,"ELEMENT_SET_NO":999,"REV_AT_EPOCH":2459,"BSTAR":0.00019234,"MEAN_MOTION_DOT":2.27e-6,"MEAN_MOTION_DDOT":0},{"OBJECT_NAME":"PRAETORIAN SDA_608","OBJECT_ID":"2025-203G","EPOCH":"2026-03-07T03:07:54.253920","MEAN_MOTION":13.83886505,"ECCENTRICITY":0.0007167,"INCLINATION":81.2977,"RA_OF_ASC_NODE":105.297,"ARG_OF_PERICENTER":113.6306,"MEAN_ANOMALY":246.5603,"EPHEMERIS_TYPE":0,"CLASSIFICATION_TYPE":"U","NORAD_CAT_ID":65571,"ELEMENT_SET_NO":999,"REV_AT_EPOCH":2457,"BSTAR":5.0637e-5,"MEAN_MOTION_DOT":6.8e-7,"MEAN_MOTION_DDOT":0},{"OBJECT_NAME":"PRAETORIAN SDA_609","OBJECT_ID":"2025-203H","EPOCH":"2026-03-07T04:02:40.790688","MEAN_MOTION":13.84314286,"ECCENTRICITY":0.0008229,"INCLINATION":81.3023,"RA_OF_ASC_NODE":105.2704,"ARG_OF_PERICENTER":107.4983,"MEAN_ANOMALY":252.7073,"EPHEMERIS_TYPE":0,"CLASSIFICATION_TYPE":"U","NORAD_CAT_ID":65572,"ELEMENT_SET_NO":999,"REV_AT_EPOCH":2458,"BSTAR":0.0002164,"MEAN_MOTION_DOT":2.54e-6,"MEAN_MOTION_DDOT":0},{"OBJECT_NAME":"PRAETORIAN SDA_610","OBJECT_ID":"2025-203J","EPOCH":"2026-03-07T04:29:03.711264","MEAN_MOTION":13.84010886,"ECCENTRICITY":0.0007792,"INCLINATION":81.2978,"RA_OF_ASC_NODE":105.2108,"ARG_OF_PERICENTER":108.9035,"MEAN_ANOMALY":251.2967,"EPHEMERIS_TYPE":0,"CLASSIFICATION_TYPE":"U","NORAD_CAT_ID":65573,"ELEMENT_SET_NO":999,"REV_AT_EPOCH":2458,"BSTAR":5.8952e-5,"MEAN_MOTION_DOT":7.7e-7,"MEAN_MOTION_DDOT":0},{"OBJECT_NAME":"PRAETORIAN SDA_611","OBJECT_ID":"2025-203K","EPOCH":"2026-03-07T03:26:23.928000","MEAN_MOTION":13.8329613,"ECCENTRICITY":0.0006892,"INCLINATION":81.2973,"RA_OF_ASC_NODE":105.3233,"ARG_OF_PERICENTER":116.7267,"MEAN_ANOMALY":243.4595,"EPHEMERIS_TYPE":0,"CLASSIFICATION_TYPE":"U","NORAD_CAT_ID":65574,"ELEMENT_SET_NO":999,"REV_AT_EPOCH":2457,"BSTAR":0.00028535,"MEAN_MOTION_DOT":3.25e-6,"MEAN_MOTION_DDOT":0},{"OBJECT_NAME":"PRAETORIAN SDA_612","OBJECT_ID":"2025-203L","EPOCH":"2026-03-07T04:30:47.881152","MEAN_MOTION":13.85044265,"ECCENTRICITY":0.0011017,"INCLINATION":81.3005,"RA_OF_ASC_NODE":105.1194,"ARG_OF_PERICENTER":110.0765,"MEAN_ANOMALY":250.1579,"EPHEMERIS_TYPE":0,"CLASSIFICATION_TYPE":"U","NORAD_CAT_ID":65575,"ELEMENT_SET_NO":999,"REV_AT_EPOCH":2459,"BSTAR":0.0002064,"MEAN_MOTION_DOT":2.46e-6,"MEAN_MOTION_DDOT":0},{"OBJECT_NAME":"PRAETORIAN SDA_613","OBJECT_ID":"2025-203M","EPOCH":"2026-03-07T04:37:47.104320","MEAN_MOTION":13.82987338,"ECCENTRICITY":0.0007077,"INCLINATION":81.2971,"RA_OF_ASC_NODE":105.2178,"ARG_OF_PERICENTER":109.3014,"MEAN_ANOMALY":250.8908,"EPHEMERIS_TYPE":0,"CLASSIFICATION_TYPE":"U","NORAD_CAT_ID":65576,"ELEMENT_SET_NO":999,"REV_AT_EPOCH":2458,"BSTAR":0.00023176,"MEAN_MOTION_DOT":2.65e-6,"MEAN_MOTION_DDOT":0},{"OBJECT_NAME":"PRAETORIAN SDA_614","OBJECT_ID":"2025-203N","EPOCH":"2026-03-07T03:47:36.665664","MEAN_MOTION":13.84765379,"ECCENTRICITY":0.0008406,"INCLINATION":81.2983,"RA_OF_ASC_NODE":105.1989,"ARG_OF_PERICENTER":107.0156,"MEAN_ANOMALY":253.1922,"EPHEMERIS_TYPE":0,"CLASSIFICATION_TYPE":"U","NORAD_CAT_ID":65577,"ELEMENT_SET_NO":999,"REV_AT_EPOCH":2459,"BSTAR":4.89e-5,"MEAN_MOTION_DOT":6.7e-7,"MEAN_MOTION_DDOT":0},{"OBJECT_NAME":"PRAETORIAN SDA_615","OBJECT_ID":"2025-203P","EPOCH":"2026-03-07T04:22:03.237024","MEAN_MOTION":13.84422135,"ECCENTRICITY":0.0010302,"INCLINATION":81.2993,"RA_OF_ASC_NODE":105.0762,"ARG_OF_PERICENTER":107.0356,"MEAN_ANOMALY":253.193,"EPHEMERIS_TYPE":0,"CLASSIFICATION_TYPE":"U","NORAD_CAT_ID":65578,"ELEMENT_SET_NO":999,"REV_AT_EPOCH":2459,"BSTAR":0.00015069,"MEAN_MOTION_DOT":1.81e-6,"MEAN_MOTION_DDOT":0},{"OBJECT_NAME":"PRAETORIAN SDA_616","OBJECT_ID":"2025-203Q","EPOCH":"2026-03-07T03:25:17.152032","MEAN_MOTION":13.83297695,"ECCENTRICITY":0.000665,"INCLINATION":81.3033,"RA_OF_ASC_NODE":105.4074,"ARG_OF_PERICENTER":116.5482,"MEAN_ANOMALY":243.6357,"EPHEMERIS_TYPE":0,"CLASSIFICATION_TYPE":"U","NORAD_CAT_ID":65579,"ELEMENT_SET_NO":999,"REV_AT_EPOCH":2457,"BSTAR":0.00022743,"MEAN_MOTION_DOT":2.62e-6,"MEAN_MOTION_DDOT":0}]
